2024-166B               
1 61180U 24166B   26067.67341263  .00038147  00000+0  25198-3 0  9998
2 61180  96.6921 322.5475 0002182 351.2198   8.9031 15.75502359 84916
STARLINK-11448 [DTC]    
1 63005U 25032A   26067.77281794  .00235334  00000+0  17834-2 0  9996
2 63005  43.0007 200.5078 0001754 264.2041  95.8626 15.70875338 62087
